name,phone,email,street address,city,zip,Plate no
barba,(513) 700-3577,tempor@eu.edu,5915 Vivamus Avenue,Husum,8653,test_013.jpg
karl,(220) 637-7629,tincidunt@scelerisqueneque.edu,909-8241 Pede. Av.,Lieferinge,27569,test_007.jpg
tilden,(550) 595-7449,vel@auctorodioa.org,474-2639 Justo Av.,Gretna,7704 IR,test_006.jpg
drew,(978) 708-8149,consequat@Sed.net,240-9936 Interdum. St.,La Thuile,82-065,test_012.jpg
tilden,(376) 243-2749,nulla.vulputate@eu.co.uk,Ap #764-8889 Suspendisse St.,Los Andes,56008,test_038.jpg
alex,(345) 811-5621,ipsum.Curabitur@luctusvulputate.co.uk,Ap #193-4946 Turpis. Avenue,Pallavaram,S8I 9VQ,test_004.jpg
aravind,(477) 193-0352,Aliquam@montesnasceturridiculus.net,102-6750 Lacus. Avenue,Sint-Jans-Molenbeek,DW2 1RV,test_010.jpg
barba,(295) 980-8946,urna@augueporttitor.org,Ap #838-8760 Nunc Street,Watson Lake,43535,test_011.jpg
karl,(581) 398-0868,sem@vitae.com,651-870 Nonummy Av.,Máfil,46156,test_005.jpg
barba,(294) 333-7095,amet.luctus.vulputate@CuraeDonec.net,Ap #353-615 Aliquam St.,Bevagna,2478 AL,test_039.jpg
alex,(799) 711-2557,feugiat@acrisus.org,"Ap #534-552 Nec, Rd.",Penhold,6693,test_001.jpg
tilden,(408) 731-2153,malesuada.fringilla@sociisnatoque.ca,Ap #392-2069 Rhoncus. St.,Bangalore,31002,test_015.jpg
sri,(981) 349-3837,Quisque.ac.libero@ametmassaQuisque.org,"P.O. Box 178, 1233 Suspendisse Avenue",Dörtyol,Q5J 1OW,test_029.jpg
alex,(766) 301-5257,nisi.magna.sed@laciniaat.co.uk,Ap #774-1380 Ac St.,Jodoigne,84-694,test_028.jpg
aravind,(788) 510-5714,amet@facilisisnonbibendum.co.uk,961 Semper Av.,Strongoli,V2G 9A4,test_014.jpg
rob,(572) 340-9972,ipsum.Suspendisse.non@temporarcuVestibulum.org,657-6814 Blandit Road,Poulseur,66298,test_016.jpg
alex,(602) 321-3362,at.velit.Pellentesque@gravida.net,290-5942 Sodales. St.,South Burlington,T0G 3B7,test_002.jpg
gabriel,(183) 242-4940,nunc.est.mollis@malesuadafamesac.edu,967-6269 Mus. St.,Knokke-Heist,K7T 0W1,test_003.jpg
gabriel,(525) 527-2861,non.sapien.molestie@justoPraesentluctus.org,160-8772 Sem St.,Bleid,2186,test_017.jpg
drew,(122) 624-1599,auctor@turpisNullaaliquet.org,9794 Mauris Rd.,Saint-Herblain,4995,test_058.jpg
sri,(844) 836-5546,Fusce.aliquet.magna@inhendreritconsectetuer.ca,849-6139 Tellus Av.,Merritt,5039 KP,test_070.jpg
joe,(115) 465-9627,fringilla.cursus@molestiesodalesMauris.co.uk,"P.O. Box 145, 9593 Dictum Rd.",Telfs,60151,test_064.jpg
bob,(706) 541-4544,quis@luctusvulputatenisi.ca,106 Nullam Rd.,Banff,56556,test_065.jpg
joe,(462) 813-1262,Cras@vitaeodio.net,3376 Semper Avenue,Linton,29-949,test_071.jpg
karl,(903) 186-5258,Morbi.accumsan.laoreet@Nullasempertellus.co.uk,"P.O. Box 322, 6567 Eros. Street",Glendale,843111,test_059.jpg
sri,(722) 986-6231,Sed.et@necquam.net,"P.O. Box 223, 6066 Cursus. Rd.",Gagliano del Capo,438041,test_067.jpg
aravind,(878) 175-7902,pulvinar.arcu.et@nonjustoProin.net,"P.O. Box 930, 9068 Nulla Road",Criciúma,8168,test_073.jpg
karl,(851) 146-6497,Nulla.semper.tellus@neque.com,Ap #194-2816 Elementum St.,Ashburton,7590 YC,test_072.jpg
tilden,(126) 799-6974,libero.Proin@egetvolutpat.com,1688 Ipsum Rd.,Vaux-sous-ChŽvremont,710548,test_066.jpg
sri,(829) 437-2852,volutpat@mollisPhaselluslibero.ca,"P.O. Box 823, 5937 Consectetuer Street",Leers-et-Fosteau,5549,test_089.jpg
tilden,(484) 746-3386,dolor@Pellentesqueut.co.uk,"P.O. Box 853, 7880 Quis Ave",Lerwick,22-618,test_062.jpg
aravind,(776) 156-1225,Nulla.interdum.Curabitur@Morbisit.net,Ap #398-7488 Nec Road,Matagami,21819,test_076.jpg
joe,(799) 748-2700,felis.eget@purusinmolestie.com,Ap #757-5818 Egestas. Street,Portland,41706,test_077.jpg
drew,(852) 513-3294,dictum.augue.malesuada@loremipsum.edu,713-8978 Elit. Road,San Mauro Marchesato,18765,test_063.jpg
alex,(334) 516-3454,eu.sem@estac.co.uk,Ap #621-6300 Elit Av.,San Giacomo degli Schiavoni,70116,test_088.jpg
alex,(915) 356-0135,nisl.Maecenas.malesuada@elit.net,160-153 Quisque Av.,Laramie,67701,test_075.jpg
kel,(496) 869-7272,turpis.Aliquam.adipiscing@Maecenasmalesuadafringilla.ca,"9395 Et, Road",Baasrode,143938,test_061.jpg
rob,(664) 573-6027,dapibus@lectusantedictum.co.uk,"P.O. Box 550, 4393 Luctus Road",Kaiserslauter,69821,test_049.jpg
gabriel,(873) 659-6156,ut.ipsum.ac@eget.com,"573-8783 Orci, Avenue",Bangor,7664,test_048.jpg
aravind,(234) 217-0071,quis@nibh.org,Ap #276-2585 Eleifend Avenue,Le Puy-en-Velay,78943,test_060.jpg
bob,(313) 415-7498,et.malesuada.fames@arcuvel.org,624-8787 Magna. St.,Ripacandida,62164,test_074.jpg
alex,(970) 750-4437,nec.cursus.a@maurissapiencursus.edu,104-8374 Magna Street,Lakewood,486203,test_092.jpg
barba,(560) 467-3061,Phasellus.vitae.mauris@magnanecquam.co.uk,Ap #537-6817 Accumsan St.,Santa Luzia,12160,test_086.jpg
kel,(757) 498-3433,fringilla.mi@Suspendissecommodo.com,207-7220 Duis Avenue,Marburg,298096,test_079.jpg
tim,(771) 940-3866,magna.et@euismodmauris.ca,238-8244 Pellentesque Rd.,Pavone del Mella,8348,test_051.jpg
alex,(417) 766-4729,Mauris.non@non.org,9438 Egestas. Ave,Mostazal,R5C 8R5,test_045.jpg
rob,(688) 296-8012,porttitor.scelerisque@semperNam.edu,8920 Pretium Ave,Lewiston,1313,test_044.jpg
gabriel,(820) 819-2794,sem.Pellentesque.ut@necorci.com,9275 Magna. Rd.,Uppingham. Cottesmore,15715,test_050.jpg
barba,(666) 292-7654,euismod@Proin.ca,2730 In Street,Dieppe,61414,test_078.jpg
tim,(585) 632-2593,lobortis@In.edu,Ap #614-1600 Urna. Road,Casoli,338284,test_087.jpg
tilden,(778) 923-2871,risus.Donec@massaMaurisvestibulum.co.uk,4247 Senectus Rd.,Rigolet,FS06 2HR,test_093.jpg
barba,(817) 294-1890,gravida.Aliquam.tincidunt@pede.ca,"P.O. Box 247, 1886 Ligula Avenue",Hanau,97958,test_085.jpg
aravind,(434) 349-4788,quis.pede@nec.net,629-821 Egestas Ave,Navidad,87245,test_091.jpg
sri,(323) 976-0019,nibh.Donec.est@aenimSuspendisse.com,"P.O. Box 979, 108 Risus Street",Cornwall,61174,test_046.jpg
drew,(102) 290-9468,diam.lorem.auctor@duisemperet.edu,650-5206 Dolor. Street,Richmond,0634 JJ,test_052.jpg
joe,(239) 611-4684,nunc.In@amet.co.uk,864-908 Ut St.,Boussu-lez-Walcourt,A5S 7H1,test_053.jpg
aravind,(838) 457-5078,ac@Aenean.org,Ap #667-4701 Cum Avenue,Montgomery,617297,test_047.jpg
joe,(400) 541-7572,enim@eudoloregestas.co.uk,"P.O. Box 639, 8452 Eros. St.",Ercolano,389331,test_090.jpg
barba,(337) 205-4093,sed@hendreritconsectetuercursus.org,"8882 Non, Ave",Torquay,840362,test_084.jpg
bob,(166) 793-2351,libero.Morbi.accumsan@Aliquam.edu,309-2069 Dapibus Rd.,Oostmalle,3764,test_080.jpg
kel,(879) 890-0153,turpis.egestas.Fusce@nuncidenim.edu,"P.O. Box 529, 5177 Id, St.",Sunshine Coast Regional District,6455,test_094.jpg
alex,(779) 104-5557,consectetuer.mauris.id@facilisis.co.uk,5961 Nunc Rd.,Hachy,16873,test_043.jpg
barba,(773) 942-4651,eget.massa.Suspendisse@ligulatortor.ca,"5429 Nec, Street",Berwick,8792,test_057.jpg
sri,(322) 370-0078,dolor.Quisque@euismodac.co.uk,6685 In St.,Litueche,69778,test_056.jpg
tim,(343) 469-4838,non.vestibulum.nec@tempor.co.uk,"P.O. Box 128, 8464 Aliquet, Rd.",Opoeteren,70240,test_042.jpg
karl,(243) 500-0495,ac.sem.ut@Cum.org,"P.O. Box 163, 8480 Sodales. St.",Bastia,53191,test_095.jpg
barba,(863) 177-9252,et@enimSuspendisse.com,847-9954 Donec Ave,Requínoa,8173,test_081.jpg
alex,(415) 249-2726,malesuada.id@vitaesodalesnisi.ca,6122 Libero Avenue,Erli,7806 JZ,test_097.jpg
kel,(449) 507-2478,sed.sem.egestas@erat.edu,1675 Curae; Street,Cumnock,2263 QW,test_083.jpg
drew,(749) 778-9870,elit.Aliquam@elit.edu,4333 Arcu St.,Alcorcón,73144,test_054.jpg
barba,(697) 504-0510,suscipit@duiFuscealiquam.co.uk,Ap #509-3542 Nonummy. Rd.,Cap-Rouge,9824,test_040.jpg
gabriel,(386) 217-7639,Fusce.fermentum.fermentum@dolor.edu,"P.O. Box 648, 703 Tellus St.",Issime,66-055,test_068.jpg
joe,(747) 231-8391,dis.parturient@a.edu,"P.O. Box 456, 4952 Sapien. Ave",Steyr,23510,test_069.jpg
tilden,(677) 632-7270,posuere.cubilia@enimCurabiturmassa.net,"2572 Consequat, St.",Coutisse,9854 BH,test_041.jpg
aravind,(581) 651-3037,at.iaculis@morbitristique.ca,1267 Mauris St.,Quispamsis,85440,test_055.jpg
joe,(689) 947-8629,interdum.Nunc@veliteusem.ca,"P.O. Box 731, 5773 Eu Ave",Cervinara,43220,test_082.jpg
joe,(704) 822-0290,nibh.Phasellus.nulla@duiCum.ca,Ap #425-6162 Aliquet Rd.,Daknam,35-254,test_096.jpg
barba,(625) 488-7453,interdum.ligula.eu@massarutrum.com,Ap #452-8702 Non Rd.,Mörfelden-Walldorf,9776,test_032.jpg
rob,(435) 966-7581,lacus@elitpellentesquea.org,Ap #320-9526 Iaculis Av.,Sint-Martens-Lennik,H0Y 8C5,test_026.jpg
rob,(265) 964-3509,arcu@faucibusidlibero.co.uk,Ap #877-4589 Commodo Street,Bergama,A9M 7XW,test_027.jpg
rob,(961) 720-4022,mauris@elita.com,299-1379 Metus Rd.,Hertford,IS0N 9SD,test_033.jpg
tim,(594) 505-0555,varius.orci@Cras.co.uk,"P.O. Box 372, 4362 Lorem St.",Forlì,8075 MW,test_019.jpg
tim,(421) 804-0742,volutpat@a.edu,"P.O. Box 426, 7706 Feugiat Road",Yahyalı,64907-409,test_025.jpg
sri,(320) 190-6264,enim.sit@velest.co.uk,Ap #212-7785 Donec Rd.,Stamford,37889,test_031.jpg
alex,(294) 681-5985,Donec@justoProinnon.edu,108 Magna. St.,Machelen,A9E 8G5,test_030.jpg
tim,(408) 794-9045,Donec.tincidunt@eueratsemper.co.uk,424-7106 Nibh Avenue,Sint-Pieters-Woluwe,2051,test_024.jpg
tim,(566) 764-1386,rutrum.lorem@egestasrhoncusProin.co.uk,"P.O. Box 735, 9540 Eget St.",Kohima,25-316,test_018.jpg
tim,(211) 183-2490,id.ante.dictum@elit.ca,Ap #289-1843 Sed St.,Bridge of Allan,1469,test_020.jpg
tim,(926) 207-9209,quis@cubiliaCuraeDonec.co.uk,9952 Porttitor Av.,Minderhout,75569,test_034.jpg
sri,(538) 262-5359,rutrum@ullamcorperviverra.org,Ap #126-7650 Lacus. Rd.,Eernegem,27160,test_008.jpg
tilden,(417) 446-4020,ac@vestibulumlorem.edu,354-8486 Sit St.,Roma,704297,test_009.jpg
drew,(794) 930-1131,mollis@aliquetmagna.org,Ap #915-4582 Eu St.,Newton Abbot,11185,test_035.jpg
kel,(453) 332-2511,et.rutrum@fermentumarcu.ca,4427 Pretium St.,Gaspé,63012,test_021.jpg
drew,(882) 686-5198,lorem.ac.risus@Aeneansedpede.edu,260-7154 Justo Rd.,Saumur,71278-225,test_037.jpg
barba,(312) 209-5051,litora.torquent@amifringilla.ca,Ap #123-787 Amet St.,Wandre,28127,test_023.jpg
aravind,(905) 189-9243,orci.tincidunt@nonsollicitudin.com,7790 Pede. Rd.,Reutlingen,40328,test_022.jpg
tilden,(937) 512-8352,posuere@Proinnon.edu,8084 Nullam St.,Monceau-sur-Sambre,71704,test_036.jpg
,,,,,,
,,,,,,
,,,,,,